{
  "type": "FeatureCollection",
  "features": [
    {
      "type": "Feature",
      "properties": {
        "norad_id": 34088,
        "name": "IRIDIUM 33 DEB",
        "group": "iridium-33-debris",
        "lat": -26.38266477202064,
        "lon": 22.264760210844894,
        "alt_km": 602.0436874835787,
        "timestamp": "2025-12-27T05:29:39.588816+00:00",
        "meta_object_name": "IRIDIUM 33 DEB",
        "meta_object_id": "1997-051CX",
        "meta_epoch": "2025-12-26T14:04:54.130368",
        "meta_mean_motion": 14.92012615,
        "meta_eccentricity": 0.000718,
        "meta_inclination": 86.3846,
        "meta_ra_of_asc_node": 24.3573,
        "meta_arg_of_pericenter": 134.1016,
        "meta_mean_anomaly": 352.4907,
        "meta_ephemeris_type": 0,
        "meta_classification_type": "U",
        "meta_norad_cat_id": 34088,
        "meta_element_set_no": 999,
        "meta_rev_at_epoch": 88948,
        "meta_bstar": 0.0024249,
        "meta_mean_motion_dot": 0.00024675,
        "meta_mean_motion_ddot": 0,
        "tle_line1": "1 34088U 97051CX  25360.58673762  .00024675  00000+0  24249-2 0  9991",
        "tle_line2": "2 34088  86.3846  24.3573 0007180 134.1016 352.4907 14.92012615889484"
      },
      "geometry": {
        "type": "Point",
        "coordinates": [
          22.264760210844894,
          -26.38266477202064
        ]
      }
    },
    {
      "type": "Feature",
      "properties": {
        "norad_id": 34091,
        "name": "IRIDIUM 33 DEB",
        "group": "iridium-33-debris",
        "lat": 31.83604292435143,
        "lon": 62.46988058360236,
        "alt_km": 639.3628287670463,
        "timestamp": "2025-12-27T05:29:39.588826+00:00",
        "meta_object_name": "IRIDIUM 33 DEB",
        "meta_object_id": "1997-051DA",
        "meta_epoch": "2025-12-26T21:15:09.157824",
        "meta_mean_motion": 14.82875127,
        "meta_eccentricity": 0.00343132,
        "meta_inclination": 86.3406,
        "meta_ra_of_asc_node": 60.3501,
        "meta_arg_of_pericenter": 242.6153,
        "meta_mean_anomaly": 117.1577,
        "meta_ephemeris_type": 0,
        "meta_classification_type": "U",
        "meta_norad_cat_id": 34091,
        "meta_element_set_no": 999,
        "meta_rev_at_epoch": 88076,
        "meta_bstar": 0.005713469,
        "meta_mean_motion_dot": 0.00047038,
        "meta_mean_motion_ddot": 0,
        "tle_line1": "1 34091U 97051DA  25360.88552266  .00047038  00000+0  57135-2 0  9991",
        "tle_line2": "2 34091  86.3406  60.3501 0034313 242.6153 117.1577 14.82875127880761"
      },
      "geometry": {
        "type": "Point",
        "coordinates": [
          62.46988058360236,
          31.83604292435143
        ]
      }
    },
    {
      "type": "Feature",
      "properties": {
        "norad_id": 34097,
        "name": "IRIDIUM 33 DEB",
        "group": "iridium-33-debris",
        "lat": -34.20464132313427,
        "lon": -7.57733289354858,
        "alt_km": 724.6864828002535,
        "timestamp": "2025-12-27T05:29:39.588837+00:00",
        "meta_object_name": "IRIDIUM 33 DEB",
        "meta_object_id": "1997-051DG",
        "meta_epoch": "2025-12-26T22:57:25.331616",
        "meta_mean_motion": 14.34897502,
        "meta_eccentricity": 0.00811652,
        "meta_inclination": 86.2009,
        "meta_ra_of_asc_node": 355.1315,
        "meta_arg_of_pericenter": 315.5596,
        "meta_mean_anomaly": 43.9106,
        "meta_ephemeris_type": 0,
        "meta_classification_type": "U",
        "meta_norad_cat_id": 34097,
        "meta_element_set_no": 999,
        "meta_rev_at_epoch": 87323,
        "meta_bstar": 0.0019361756,
        "meta_mean_motion_dot": 5.728e-05,
        "meta_mean_motion_ddot": 0,
        "tle_line1": "1 34097U 97051DG  25360.95654319  .00005728  00000+0  19362-2 0  9997",
        "tle_line2": "2 34097  86.2009 355.1315 0081165 315.5596  43.9106 14.34897502873237"
      },
      "geometry": {
        "type": "Point",
        "coordinates": [
          -7.57733289354858,
          -34.20464132313427
        ]
      }
    },
    {
      "type": "Feature",
      "properties": {
        "norad_id": 34145,
        "name": "IRIDIUM 33 DEB",
        "group": "iridium-33-debris",
        "lat": -84.07863770362435,
        "lon": -174.23536422953418,
        "alt_km": 789.2145136640966,
        "timestamp": "2025-12-27T05:29:39.588847+00:00",
        "meta_object_name": "IRIDIUM 33 DEB",
        "meta_object_id": "1997-051DY",
        "meta_epoch": "2025-12-26T14:56:53.035584",
        "meta_mean_motion": 14.42393887,
        "meta_eccentricity": 0.0055399,
        "meta_inclination": 86.2128,
        "meta_ra_of_asc_node": 326.3433,
        "meta_arg_of_pericenter": 49.7595,
        "meta_mean_anomaly": 310.8432,
        "meta_ephemeris_type": 0,
        "meta_classification_type": "U",
        "meta_norad_cat_id": 34145,
        "meta_element_set_no": 999,
        "meta_rev_at_epoch": 87838,
        "meta_bstar": 0.0014608,
        "meta_mean_motion_dot": 4.939e-05,
        "meta_mean_motion_ddot": 0,
        "tle_line1": "1 34145U 97051DY  25360.62283606  .00004939  00000+0  14608-2 0  9993",
        "tle_line2": "2 34145  86.2128 326.3433 0055399  49.7595 310.8432 14.42393887878384"
      },
      "geometry": {
        "type": "Point",
        "coordinates": [
          -174.23536422953418,
          -84.07863770362435
        ]
      }
    },
    {
      "type": "Feature",
      "properties": {
        "norad_id": 34146,
        "name": "IRIDIUM 33 DEB",
        "group": "iridium-33-debris",
        "lat": -75.14923287448134,
        "lon": 177.58481840561168,
        "alt_km": 733.6908019227476,
        "timestamp": "2025-12-27T05:29:39.588857+00:00",
        "meta_object_name": "IRIDIUM 33 DEB",
        "meta_object_id": "1997-051DZ",
        "meta_epoch": "2025-12-26T05:10:53.931072",
        "meta_mean_motion": 14.49135058,
        "meta_eccentricity": 0.0027049,
        "meta_inclination": 86.2845,
        "meta_ra_of_asc_node": 343.8464,
        "meta_arg_of_pericenter": 175.3009,
        "meta_mean_anomaly": 198.4852,
        "meta_ephemeris_type": 0,
        "meta_classification_type": "U",
        "meta_norad_cat_id": 34146,
        "meta_element_set_no": 999,
        "meta_rev_at_epoch": 88302,
        "meta_bstar": 0.00092782,
        "meta_mean_motion_dot": 3.563e-05,
        "meta_mean_motion_ddot": 0,
        "tle_line1": "1 34146U 97051DZ  25360.21590198  .00003563  00000+0  92782-3 0  9998",
        "tle_line2": "2 34146  86.2845 343.8464 0027049 175.3009 198.4852 14.49135058883020"
      },
      "geometry": {
        "type": "Point",
        "coordinates": [
          177.58481840561168,
          -75.14923287448134
        ]
      }
    },
    {
      "type": "Feature",
      "properties": {
        "norad_id": 34159,
        "name": "IRIDIUM 33 DEB",
        "group": "iridium-33-debris",
        "lat": 41.27872942987383,
        "lon": -141.15067848905383,
        "alt_km": 762.8380685003758,
        "timestamp": "2025-12-27T05:29:39.588867+00:00",
        "meta_object_name": "IRIDIUM 33 DEB",
        "meta_object_id": "1997-051EN",
        "meta_epoch": "2025-12-26T02:08:20.180544",
        "meta_mean_motion": 14.38525461,
        "meta_eccentricity": 0.00262795,
        "meta_inclination": 86.3493,
        "meta_ra_of_asc_node": 42.5483,
        "meta_arg_of_pericenter": 240.6679,
        "meta_mean_anomaly": 119.1893,
        "meta_ephemeris_type": 0,
        "meta_classification_type": "U",
        "meta_norad_cat_id": 34159,
        "meta_element_set_no": 999,
        "meta_rev_at_epoch": 88151,
        "meta_bstar": 0.00037825721,
        "meta_mean_motion_dot": 1.179e-05,
        "meta_mean_motion_ddot": 0,
        "tle_line1": "1 34159U 97051EN  25360.08912246  .00001179  00000+0  37826-3 0  9998",
        "tle_line2": "2 34159  86.3493  42.5483 0026279 240.6679 119.1893 14.38525461881517"
      },
      "geometry": {
        "type": "Point",
        "coordinates": [
          -141.15067848905383,
          41.27872942987383
        ]
      }
    },
    {
      "type": "Feature",
      "properties": {
        "norad_id": 34350,
        "name": "IRIDIUM 33 DEB",
        "group": "iridium-33-debris",
        "lat": 12.995955216146932,
        "lon": 175.67004987280293,
        "alt_km": 737.8245824516143,
        "timestamp": "2025-12-27T05:29:39.588878+00:00",
        "meta_object_name": "IRIDIUM 33 DEB",
        "meta_object_id": "1997-051ES",
        "meta_epoch": "2025-12-26T11:11:35.511072",
        "meta_mean_motion": 14.45418943,
        "meta_eccentricity": 0.0023531,
        "meta_inclination": 86.3274,
        "meta_ra_of_asc_node": 356.8502,
        "meta_arg_of_pericenter": 93.2383,
        "meta_mean_anomaly": 67.9711,
        "meta_ephemeris_type": 0,
        "meta_classification_type": "U",
        "meta_norad_cat_id": 34350,
        "meta_element_set_no": 999,
        "meta_rev_at_epoch": 88491,
        "meta_bstar": 0.00036255,
        "meta_mean_motion_dot": 1.3e-05,
        "meta_mean_motion_ddot": 0,
        "tle_line1": "1 34350U 97051ES  25360.46638323  .00001300  00000+0  36255-3 0  9995",
        "tle_line2": "2 34350  86.3274 356.8502 0023531  93.2383  67.9711 14.45418943884912"
      },
      "geometry": {
        "type": "Point",
        "coordinates": [
          175.67004987280293,
          12.995955216146932
        ]
      }
    }
  ]
}